NETSAT-1                
1 46506U 20068W   26068.94628138  .00018269  00000+0  59222-3 0  9998
2 46506  97.8751  63.2583 0005733  18.5877 341.5572 15.32042482300091
TRANSPORTER-11 OBJECT A 
1 60468U 24149A   26068.74646183  .00010774  00000+0  36054-3 0  9994
2 60468  97.3780 149.0949 0003109 191.0010 169.1164 15.31141332 86838
